[{"OBJECT_NAME":"OBJECT M","OBJECT_ID":"2024-205M","EPOCH":"2026-03-09T22:23:47.520096","MEAN_MOTION":15.27663844,"ECCENTRICITY":0.00036602,"INCLINATION":97.3915,"RA_OF_ASC_NODE":144.193,"ARG_OF_PERICENTER":310.2554,"MEAN_ANOMALY":49.8364,"EPHEMERIS_TYPE":0,"CLASSIFICATION_TYPE":"U","NORAD_CAT_ID":61905,"ELEMENT_SET_NO":999,"REV_AT_EPOCH":7334,"BSTAR":0.00036391974,"MEAN_MOTION_DOT":9.771e-5,"MEAN_MOTION_DDOT":0},{"OBJECT_NAME":"STARLINK-34171","OBJECT_ID":"2025-107U","EPOCH":"2026-03-09T10:08:53.957472","MEAN_MOTION":15.27594899,"ECCENTRICITY":0.00012904,"INCLINATION":43.0027,"RA_OF_ASC_NODE":202.7098,"ARG_OF_PERICENTER":236.1366,"MEAN_ANOMALY":123.9363,"EPHEMERIS_TYPE":0,"CLASSIFICATION_TYPE":"U","NORAD_CAT_ID":64082,"ELEMENT_SET_NO":999,"REV_AT_EPOCH":4608,"BSTAR":0.0010825092,"MEAN_MOTION_DOT":0.0002966,"MEAN_MOTION_DDOT":0}]
